0 CZ-4 DEB
1 21911U 90081CH  13282.31049366  .00000539  00000-0  23176-3 0   877
2 21911 098.7828 293.0249 0054870 208.0770 276.8225 14.28003146188148
0 CZ-4 DEB
1 21911U 90081CH  13286.86399485  .00000573  00000-0  24499-3 0   890
2 21911 098.7820 297.6043 0055030 194.7206 285.6285 14.28007350188792
0 CZ-4 DEB
1 21911U 90081CH  13289.53273289  .00000563  00000-0  24124-3 0   906
2 21911 098.7820 300.2876 0055261 186.9263 325.1845 14.28012619189178
0 CZ-4 DEB
1 21911U 90081CH  13292.32871573  .00000668  00000-0  28254-3 0   912
2 21911 098.7819 303.0988 0055319 178.9201 298.7751 14.28015792189578
0 CZ-4 DEB
1 21911U 90081CH  13294.50750756  .00000674  00000-0  28501-3 0   926
2 21911 098.7822 305.2895 0055420 172.6225 339.5905 14.28019386189885
